OBJECT_NAME,OBJECT_ID,EPOCH,MEAN_MOTION,ECCENTRICITY,INCLINATION,RA_OF_ASC_NODE,ARG_OF_PERICENTER,MEAN_ANOMALY,EPHEMERIS_TYPE,CLASSIFICATION_TYPE,NORAD_CAT_ID,ELEMENT_SET_NO,REV_AT_EPOCH,BSTAR,MEAN_MOTION_DOT,MEAN_MOTION_DDOT
INMARSAT GX5,2019-080B,2026-06-18T17:36:35.040096,1.00273686,.00023453,0.0349,1.4048,101.2945,79.4614,0,U,44801,999,680,0,.69E-6,0
JCSAT-18 (KACIFIC 1),2019-091A,2026-06-18T20:28:45.939072,1.00269221,.0000353,0.0382,209.1411,104.5205,50.5999,0,U,44868,999,2402,0,-.208E-5,0
ELEKTRO-L 3,2019-095A,2026-06-19T14:56:56.908032,1.00271435,.00009556,0.2646,81.5213,353.8222,132.6924,0,U,44903,999,2373,0,-.102E-5,0
SHIJIAN-20 (SJ-20),2019-097A,2026-06-18T18:15:57.407040,1.00251654,.0015658,4.9236,75.0437,50.3725,100.3800,0,U,44910,999,2371,0,.129E-5,0
TJS-5,2020-002A,2026-06-19T01:56:38.702400,1.00271534,.0007523,0.0107,349.2038,58.4409,356.3253,0,U,44978,999,2372,0,-.348E-5,0
GSAT-30,2020-005A,2026-06-18T21:52:15.640032,1.00272668,.0003356,0.0274,260.6747,177.6357,239.8846,0,U,45026,999,2352,0,-.171E-5,0
EUTELSAT KONNECT,2020-005B,2026-06-18T12:57:15.835104,1.00268521,.0001311,0.0735,95.3855,137.6450,235.2733,0,U,45027,999,2435,0,.43E-6,0
JCSAT-17,2020-013A,2026-06-19T13:08:09.155616,1.00270751,.0002602,5.3921,356.9059,88.9886,154.9282,0,U,45245,999,2325,0,-.325E-5,0
GEO-KOMPSAT-2B,2020-013B,2026-06-18T22:05:14.395200,1.00269156,.0000715,0.0459,191.9494,77.1689,97.5964,0,U,45246,999,2329,0,-.35E-5,0
BEIDOU-3 G2,2020-017A,2026-06-19T14:58:04.300032,1.00271738,.000205,2.8701,47.3931,33.6677,131.3840,0,U,45344,999,2328,0,-.147E-5,0
AEHF-6 (USA 298),2020-022B,2026-06-19T13:06:09.529632,1.00270651,.00430431,2.5422,301.1982,17.1024,283.7801,0,U,45465,999,2303,0,-.304E-5,0
BEIDOU-3 G3,2020-040A,2026-06-19T15:30:27.607968,1.00265135,.00023553,2.4543,67.4612,337.0727,206.3951,0,U,45807,999,2209,0,-.359E-5,0
APSTAR-6D,2020-045A,2026-06-19T06:40:11.233920,1.00271778,.00023937,0.0465,91.7344,5.1494,44.7111,0,U,45863,999,2188,0,-.324E-5,0
KOREASAT 116,2020-048A,2026-06-19T14:18:03.792672,1.00268046,.00009085,0.0152,307.9323,171.8039,118.7695,0,U,45920,999,2166,0,-.368E-5,0
EXPRESS 103,2020-053A,2026-06-19T06:29:18.049920,1.00271359,.0000489,0.0132,303.5616,343.4474,174.3133,0,U,45985,999,2167,0,-.287E-5,0
EXPRESS 80,2020-053B,2026-06-19T00:51:01.022400,1.00269909,.00017969,0.0218,327.7601,207.5880,184.6537,0,U,45986,999,2165,0,0,0
BSAT-4B,2020-056A,2026-06-18T16:23:27.843360,1.00271021,.00040096,0.0543,142.3495,332.4980,147.7633,0,U,46112,999,2140,0,-.356E-5,0
MEV-2,2020-056B,2026-06-19T00:53:40.979904,1.00270098,.00002873,0.0178,304.3060,227.0710,108.3025,0,U,46113,999,8056,0,-.18E-6,0
GALAXY 30 (G-30),2020-056C,2026-06-19T12:16:55.659648,1.00272740,.00022362,0.0177,4.8227,83.1357,239.0036,0,U,46114,999,2131,0,.31E-6,0
GAOFEN-13 01,2020-071A,2026-06-19T15:09:03.246048,1.00269431,.00413699,0.5288,84.8350,123.6142,44.8696,0,U,46610,999,2094,0,-.369E-5,0
TIANTONG-1 2,2020-082A,2026-06-19T15:10:48.078624,1.00268258,.00010484,0.7867,327.9349,111.4709,181.0527,0,U,46916,999,2067,0,-.362E-5,0
LUCAS (JDRS-1),2020-089A,2026-06-19T03:02:27.335328,1.00269386,.00023038,0.0529,273.9028,150.4833,339.3706,0,U,47202,999,2043,0,-.241E-5,0
SXM-7,2020-096A,2026-06-18T22:47:02.315040,1.00272371,.00036974,0.0331,101.1491,23.6623,38.9676,0,U,47240,999,746,0,-.212E-5,0
CMS-01,2020-099A,2026-06-19T01:17:38.682816,1.00271885,.00035847,0.1036,93.8762,181.7375,94.0748,0,U,47256,999,2021,0,-.171E-5,0
TURKSAT 5A,2021-001A,2026-06-18T21:37:29.800704,1.00271937,.0000161,0.0203,62.1254,265.0690,295.2443,0,U,47306,999,1998,0,.148E-5,0
TIANTONG-1 3,2021-003A,2026-06-19T13:15:35.035776,1.00270053,.00030338,1.7541,339.5034,113.6069,95.0828,0,U,47321,999,1998,0,-.161E-5,0
TJS-6,2021-010A,2026-06-19T13:43:30.300672,1.00270029,.00029701,0.2436,263.9561,226.0045,162.1790,0,U,47613,999,1983,0,.37E-6,0
SBIRS GEO-5 (USA 315),2021-042A,2026-06-19T08:11:23.447040,1.00270923,.00013921,5.1004,329.1539,118.8471,36.2188,0,U,48618,999,1879,0,-.275E-5,0
FENGYUN 4B,2021-047A,2026-06-19T16:02:55.086432,1.00275662,.00059425,0.1601,77.8399,276.1631,259.2835,0,U,48808,999,1859,0,-.336E-5,0
SXM-8,2021-049A,2026-06-19T09:23:38.516064,1.00270001,.00050391,0.0205,22.4428,9.4601,291.4667,0,U,48838,999,1860,0,-.211E-5,0
TIANLIAN 1-05,2021-063A,2026-06-19T06:06:42.715584,1.00272012,.00005339,1.6002,80.6892,344.0533,311.2173,0,U,49011,999,1809,0,.101E-5,0
STAR ONE D2,2021-069A,2026-06-18T19:26:03.034176,1.00270132,.00020325,0.0153,340.0202,132.6885,15.7458,0,U,49055,999,1796,0,0,0
