INMARSAT GX5            
1 44801U 19080B   26169.73373889  .00000069  00000+0  00000+0 0  9990
2 44801   0.0349   1.4048 0002345 101.2945  79.4614  1.00273686  6806
JCSAT-18 (KACIFIC 1)    
1 44868U 19091A   26169.85330948 -.00000208  00000+0  00000+0 0  9993
2 44868   0.0382 209.1411 0000353 104.5205  50.5999  1.00269221 24029
ELEKTRO-L 3             
1 44903U 19095A   26170.62288088 -.00000102  00000+0  00000+0 0  9994
2 44903   0.2646  81.5213 0000955 353.8222 132.6924  1.00271435 23739
SHIJIAN-20 (SJ-20)      
1 44910U 19097A   26169.76108110  .00000129  00000+0  00000+0 0  9992
2 44910   4.9236  75.0437 0015658  50.3725 100.3800  1.00251654 23716
TJS-5                   
1 44978U 20002A   26170.08100350 -.00000348  00000+0  00000+0 0  9993
2 44978   0.0107 349.2038 0007523  58.4409 356.3253  1.00271534 23722
GSAT-30                 
1 45026U 20005A   26169.91129213 -.00000171  00000+0  00000+0 0  9994
2 45026   0.0274 260.6747 0003356 177.6357 239.8846  1.00272668 23521
EUTELSAT KONNECT        
1 45027U 20005B   26169.53976661  .00000043  00000+0  00000+0 0  9997
2 45027   0.0735  95.3855 0001311 137.6450 235.2733  1.00268521 24356
JCSAT-17                
1 45245U 20013A   26170.54732819 -.00000325  00000+0  00000+0 0  9990
2 45245   5.3921 356.9059 0002602  88.9886 154.9282  1.00270751 23252
GEO-KOMPSAT-2B          
1 45246U 20013B   26169.92030550 -.00000350  00000+0  00000+0 0  9992
2 45246   0.0459 191.9494 0000715  77.1689  97.5964  1.00269156 23295
BEIDOU-3 G2             
1 45344U 20017A   26170.62366088 -.00000147  00000+0  00000+0 0  9996
2 45344   2.8701  47.3931 0002050  33.6677 131.3840  1.00271738 23280
AEHF-6 (USA 298)        
1 45465U 20022B   26170.54594363 -.00000304  00000+0  00000+0 0  9991
2 45465   2.5422 301.1982 0043043  17.1024 283.7801  1.00270651 23033
BEIDOU-3 G3             
1 45807U 20040A   26170.64615287 -.00000359  00000+0  00000+0 0  9991
2 45807   2.4543  67.4612 0002355 337.0727 206.3951  1.00265135 22096
APSTAR-6D               
1 45863U 20045A   26170.27790780 -.00000324  00000+0  00000+0 0  9991
2 45863   0.0465  91.7344 0002393   5.1494  44.7111  1.00271778 21881
KOREASAT 116            
1 45920U 20048A   26170.59587723 -.00000368  00000+0  00000+0 0  9992
2 45920   0.0152 307.9323 0000908 171.8039 118.7695  1.00268046 21662
EXPRESS 103             
1 45985U 20053A   26170.27034780 -.00000287  00000+0  00000+0 0  9994
2 45985   0.0132 303.5616 0000489 343.4474 174.3133  1.00271359 21679
EXPRESS 80              
1 45986U 20053B   26170.03542850  .00000000  00000+0  00000+0 0  9993
2 45986   0.0218 327.7601 0001796 207.5880 184.6537  1.00269909 21658
BSAT-4B                 
1 46112U 20056A   26169.68296115 -.00000356  00000+0  00000+0 0  9992
2 46112   0.0543 142.3495 0004009 332.4980 147.7633  1.00271021 21400
MEV-2                   
1 46113U 20056B   26170.03727986 -.00000018  00000+0  00000+0 0  9994
2 46113   0.0178 304.3060 0000287 227.0710 108.3025  1.00270098 80560
GALAXY 30 (G-30)        
1 46114U 20056C   26170.51175532  .00000031  00000+0  00000+0 0  9996
2 46114   0.0177   4.8227 0002236  83.1357 239.0036  1.00272740 21319
GAOFEN-13 01            
1 46610U 20071A   26170.63128757 -.00000369  00000+0  00000+0 0  9999
2 46610   0.5288  84.8350 0041369 123.6142  44.8696  1.00269431 20940
TIANTONG-1 2            
1 46916U 20082A   26170.63250091 -.00000362  00000+0  00000+0 0  9990
2 46916   0.7867 327.9349 0001048 111.4709 181.0527  1.00268258 20670
LUCAS (JDRS-1)          
1 47202U 20089A   26170.12670527 -.00000241  00000+0  00000+0 0  9996
2 47202   0.0529 273.9028 0002303 150.4833 339.3706  1.00269386 20431
SXM-7                   
1 47240U 20096A   26169.94933235 -.00000212  00000+0  00000+0 0  9990
2 47240   0.0331 101.1491 0003697  23.6623  38.9676  1.00272371  7469
CMS-01                  
1 47256U 20099A   26170.05391994 -.00000171  00000+0  00000+0 0  9998
2 47256   0.1036  93.8762 0003584 181.7375  94.0748  1.00271885 20212
TURKSAT 5A              
1 47306U 21001A   26169.90103936  .00000148  00000+0  00000+0 0  9990
2 47306   0.0203  62.1254 0000161 265.0690 295.2443  1.00271937 19989
TIANTONG-1 3            
1 47321U 21003A   26170.55248884 -.00000161  00000+0  00000+0 0  9990
2 47321   1.7541 339.5034 0003033 113.6069  95.0828  1.00270053 19986
TJS-6                   
1 47613U 21010A   26170.57187848  .00000037  00000+0  00000+0 0  9997
2 47613   0.2436 263.9561 0002970 226.0045 162.1790  1.00270029 19835
SBIRS GEO-5 (USA 315)   
1 48618U 21042A   26170.34124360 -.00000275  00000+0  00000+0 0  9998
2 48618   5.1004 329.1539 0001392 118.8471  36.2188  1.00270923 18793
FENGYUN 4B              
1 48808U 21047A   26170.66869313 -.00000336  00000+0  00000+0 0  9991
2 48808   0.1601  77.8399 0005942 276.1631 259.2835  1.00275662 18593
SXM-8                   
1 48838U 21049A   26170.39141801 -.00000211  00000+0  00000+0 0  9993
2 48838   0.0205  22.4428 0005039   9.4601 291.4667  1.00270001 18600
TIANLIAN 1-05           
1 49011U 21063A   26170.25466106  .00000101  00000+0  00000+0 0  9993
2 49011   1.6002  80.6892 0000533 344.0533 311.2173  1.00272012 18093
STAR ONE D2             
1 49055U 21069A   26169.80975734  .00000000  00000+0  00000+0 0  9996
2 49055   0.0153 340.0202 0002032 132.6885  15.7458  1.00270132 17964
